{
  "norad_id": 68780,
  "name": "STARLINK-37266",
  "history": [
    {
      "epoch": "2026-04-27T17:58:12.512352Z",
      "apogee_km": 288.0559028640064,
      "perigee_km": 286.909816185359,
      "latitude_deg": -4.5561384289488706e-05,
      "longitude_deg": 27.908261577837923,
      "height_km": 291.21046515893676,
      "semi_major_axis_km": 6665.619859524682,
      "eccentricity": 8.597e-05,
      "inclination_deg": 97.2779,
      "raan_deg": 153.1945,
      "arg_perigee_deg": 158.3223,
      "mean_anomaly_deg": 201.8089,
      "mean_motion_rev_day": 15.9529847
    }
  ]
}