STARLINK-37266          
1 68780U 26086Q   26117.74875593 -.00550060  10206-3 -14053-2 0  9991
2 68780  97.2779 153.1945 0000859 158.3223 201.8089 15.95298470  1218
